COSMOS 2251 DEB         
1 37111U 93036BGH 17338.35465897  .00005358  00000-0  34834-3 0  9999
2 37111  74.0079 219.6373 0050409 323.0953  36.6772 15.07210756417070
